H1 CPF  1  MCC 2022 10 19 12  7921 larets
H2  0304206 5557    27944 2022 10 18 23 45 00 2022 10 23 23 57 00   180 1 1  0 0 0
H9
10 0 59875 45180.000000 0     -6068482.801     -2378683.657      2730087.611
10 0 59875 45360.000000 0     -5580923.503     -1880761.777      3903900.337
10 0 59875 45540.000000 0     -4876986.761     -1330197.080      4934951.060
10 0 59875 45720.000000 0     -3981302.599      -752368.914      5785662.535
10 0 59875 45900.000000 0     -2926082.104      -172870.651      6425085.357
10 0 59875 46080.000000 0     -1749918.511       383602.764      6829985.693
10 0 59875 46260.000000 0      -496351.745       894285.461      6985643.397
10 0 59875 46440.000000 0       787741.520      1339254.283      6886353.124
10 0 59875 46620.000000 0      2053883.377      1702198.182      6535624.616
10 0 59875 46800.000000 0      3253806.634      1971017.214      5946077.593
10 0 59875 46980.000000 0      4341290.202      2138231.171      5139031.779
10 0 59875 47160.000000 0      5273956.682      2201185.741      4143790.680
10 0 59875 47340.000000 0      6014969.840      2162049.400      2996630.788
10 0 59875 47520.000000 0      6534554.783      2027592.543      1739503.384
10 0 59875 47700.000000 0      6811261.667      1808758.273       418498.982
10 0 59875 47880.000000 0      6832905.595      1520041.117      -917877.499
10 0 59875 48060.000000 0      6597121.832      1178705.707     -2220543.634
10 0 59875 48240.000000 0      6111508.445       803881.573     -3441699.797
10 0 59875 48420.000000 0      5393347.203       415587.380     -4536632.277
10 0 59875 48600.000000 0      4468918.603        33738.556     -5465372.860
10 0 59875 48780.000000 0      3372460.982      -322810.369     -6194143.342
10 0 59875 48960.000000 0      2144835.284      -637141.683     -6696544.963
10 0 59875 49140.000000 0       831955.590      -895032.715     -6954458.539
10 0 59875 49320.000000 0      -516943.892     -1085567.274     -6958643.681
10 0 59875 49500.000000 0     -1851148.349     -1201578.125     -6709032.486
10 0 59875 49680.000000 0     -3120349.078     -1239909.673     -6214718.662
10 0 59875 49860.000000 0     -4276519.127     -1201493.152     -5493642.881
10 0 59875 50040.000000 0     -5275727.617     -1091234.877     -4571986.718
10 0 59875 50220.000000 0     -6079833.472      -917719.967     -3483271.613
10 0 59875 50400.000000 0     -6657989.273      -692742.030     -2267181.006
10 0 59875 50580.000000 0     -6987886.232      -430676.165      -968132.671
10 0 59875 50760.000000 0     -7056675.220      -147723.122       366352.816
10 0 59875 50940.000000 0     -6861503.408       138941.849      1687424.131
10 0 59875 51120.000000 0     -6409640.034       412066.090      2946727.884
10 0 59875 51300.000000 0     -5718183.158       655216.652      4098218.273
10 0 59875 51480.000000 0     -4813361.422       853631.320      5099862.455
10 0 59875 51660.000000 0     -3729477.516       994978.672      5915167.715
10 0 59875 51840.000000 0     -2507555.463      1069992.171      6514480.783
10 0 59875 52020.000000 0     -1193751.750      1072951.363      6876026.725
10 0 59875 52200.000000 0       162404.790      1001992.821      6986655.436
10 0 59875 52380.000000 0      1509870.374       859238.006      6842287.153
10 0 59875 52560.000000 0      2797986.250       650735.293      6448059.393
10 0 59875 52740.000000 0      3978368.954       386216.939      5818170.647
10 0 59875 52920.000000 0      5006734.810        78676.501      4975415.979
10 0 59875 53100.000000 0      5844593.529      -256221.462      3950417.264
10 0 59875 53280.000000 0      6460749.768      -600876.956      2780558.431
10 0 59875 53460.000000 0      6832542.487      -936604.237      1508643.601
10 0 59875 53640.000000 0      6946750.418     -1244559.202       181322.032
10 0 59875 53820.000000 0      6800119.001     -1506697.539     -1152659.507
10 0 59875 54000.000000 0      6399465.516     -1706711.973     -2444307.008
10 0 59875 54180.000000 0      5761354.084     -1830896.345     -3646238.584
10 0 59875 54360.000000 0      4911362.771     -1868890.539     -4714464.887
10 0 59875 54540.000000 0      3882991.267     -1814267.574     -5610013.856
10 0 59875 54720.000000 0      2716268.339     -1664938.329     -6300336.216
10 0 59875 54900.000000 0      1456137.013     -1423355.704     -6760443.117
10 0 59875 55080.000000 0       150692.668     -1096512.397     -6973756.064
10 0 59875 55260.000000 0     -1150658.491      -695738.300     -6932651.025
10 0 59875 55440.000000 0     -2399054.403      -236304.707     -6638697.756
10 0 59875 55620.000000 0     -3547990.635       263153.546     -6102592.777
10 0 59875 55800.000000 0     -4555035.689       781378.397     -5343793.480
10 0 59875 55980.000000 0     -5383405.080      1295368.478     -4389857.979
10 0 59875 56160.000000 0     -6003338.708      1781371.623     -3275495.417
10 0 59875 56340.000000 0     -6393221.639      2215951.178     -2041339.713
10 0 59875 56520.000000 0     -6540394.418      2577075.010      -732482.635
10 0 59875 56700.000000 0     -6441608.944      2845176.813       603186.934
10 0 59875 56880.000000 0     -6103095.424      3004132.211      1916771.724
10 0 59875 57060.000000 0     -5540231.828      3042099.126      3160199.393
10 0 59875 57240.000000 0     -4776836.922      2952176.042      4288017.420
10 0 59875 57420.000000 0     -3844126.697      2732844.009      5259070.936
10 0 59875 57600.000000 0     -2779395.556      2388175.934      6037992.949
10 0 59875 57780.000000 0     -1624489.032      1927808.542      6596462.723
10 0 59875 57960.000000 0      -424134.906      1366677.009      6914190.919
10 0 59875 58140.000000 0       775789.286       724526.434      6979609.923
10 0 59875 58320.000000 0      1929992.920        25219.810      6790269.255
10 0 59875 58500.000000 0      2995463.800      -704136.970      6352930.469
10 0 59875 58680.000000 0      3933065.567     -1434230.791      5683358.334
10 0 59875 58860.000000 0      4708992.044     -2134706.026      4805801.771
10 0 59875 59040.000000 0      5296023.529     -2775419.136      3752170.155
10 0 59875 59220.000000 0      5674540.313     -3327736.202      2560917.551
10 0 59875 59400.000000 0      5833237.316     -3765814.725      1275653.795
10 0 59875 59580.000000 0      5769498.908     -4067807.048       -56465.339
10 0 59875 59760.000000 0      5489410.808     -4216919.964     -1386510.312
10 0 59875 59940.000000 0      5007401.083     -4202270.080     -2665635.320
10 0 59875 60120.000000 0      4345525.851     -4019486.242     -3846930.691
10 0 59875 60300.000000 0      3532441.964     -3671030.306     -4887183.127
10 0 59875 60480.000000 0      2602126.224     -3166222.044     -5748466.302
10 0 59875 60660.000000 0      1592414.712     -2520975.211     -6399498.132
10 0 59875 60840.000000 0       543438.270     -1757267.772     -6816730.862
10 0 59875 61020.000000 0      -503984.610      -902364.199     -6985149.482
10 0 59875 61200.000000 0     -1509928.941        12172.349     -6898758.440
10 0 59875 61380.000000 0     -2436866.877       951640.976     -6560764.581
10 0 59875 61560.000000 0     -3251049.705      1879504.106     -5983456.594
10 0 59875 61740.000000 0     -3923728.131      2758790.588     -5187788.735
10 0 59875 61920.000000 0     -4432181.194      3553560.984     -4202669.221
10 0 59875 62100.000000 0     -4760509.958      4230380.623     -3063954.305
10 0 59875 62280.000000 0     -4900159.113      4759738.891     -1813177.194
10 0 59875 62460.000000 0     -4850144.774      5117349.585      -496045.254
10 0 59875 62640.000000 0     -4616971.097      5285267.957       839245.856
10 0 59875 62820.000000 0     -4214230.118      5252760.135      2143813.544
10 0 59875 63000.000000 0     -3661904.111      5016873.801      3369924.311
10 0 59875 63180.000000 0     -2985403.630      4582680.657      4472773.385
10 0 59875 63360.000000 0     -2214402.600      3963187.390      5412131.475
10 0 59875 63540.000000 0     -1381530.176      3178921.472      6153799.325
10 0 59875 63720.000000 0      -520983.494      2257214.995      6670816.866
10 0 59875 63900.000000 0       332871.846      1231225.849      6944394.333
10 0 59875 64080.000000 0      1146860.768       138738.231      6964555.525
10 0 59875 64260.000000 0      1890273.664      -979218.822      6730481.281
10 0 59875 64440.000000 0      2536015.724     -2079894.826      6250552.151
10 0 59875 64620.000000 0      3061597.975     -3120440.131      5542084.227
10 0 59875 64800.000000 0      3449937.678     -4059575.938      4630755.341
10 0 59875 64980.000000 0      3689937.469     -4859252.751      3549727.600
10 0 59875 65160.000000 0      3776819.194     -5486232.010      2338478.582
10 0 59875 65340.000000 0      3712190.728     -5913515.868      1041370.520
10 0 59875 65520.000000 0      3503837.761     -6121549.893      -293993.706
10 0 59875 65700.000000 0      3165249.602     -6099133.917     -1618560.754
10 0 59875 65880.000000 0      2714895.755     -5843987.605     -2883690.700
10 0 59875 66060.000000 0      2175292.174     -5362935.432     -4043000.840
10 0 59875 66240.000000 0      1571907.614     -4671701.983     -5054105.493
10 0 59875 66420.000000 0       931974.435     -3794335.472     -5880167.247
10 0 59875 66600.000000 0       283270.375     -2762304.371     -6491209.529
10 0 59875 66780.000000 0      -347076.535     -1613313.816     -6865153.501
10 0 59875 66960.000000 0      -933706.865      -389895.558     -6988558.222
10 0 59875 67140.000000 0     -1454031.204       862173.756     -6857056.210
10 0 59875 67320.000000 0     -1889085.383      2095571.042     -6475481.839
10 0 59875 67500.000000 0     -2224212.160      3263192.465     -5857699.558
10 0 59875 67680.000000 0     -2449553.169      4319939.119     -5026135.614
10 0 59875 67860.000000 0     -2560335.680      5224467.046     -4011012.072
10 0 59875 68040.000000 0     -2556941.849      5940833.347     -2849290.251
99
